{
"type": "FeatureCollection",
"name": "cat_polygons",
"crs": { "type": "name", "properties": { "name": "urn:ogc:def:crs:OGC:1.3:CRS84" } },
"features": [
{ "type": "Feature", "properties": { "tag-local-identifier": "Abba-Tag", "area_m2": 33736 }, "geometry": { "type": "Polygon", "coordinates": [ [ [ -5.204071, 50.162762 ], [ -5.204254, 50.162796 ], [ -5.204962, 50.163155 ], [ -5.205609, 50.163654 ], [ -5.204953, 50.164215 ], [ -5.204064, 50.163834 ], [ -5.203749, 50.163605 ], [ -5.203375, 50.162991 ], [ -5.204071, 50.162762 ] ] ] } },
{ "type": "Feature", "properties": { "tag-local-identifier": "Alfie-Tag", "area_m2": 349133 }, "geometry": { "type": "Polygon", "coordinates": [ [ [ -4.750526, 50.341965 ], [ -4.756886, 50.342594 ], [ -4.760382, 50.342976 ], [ -4.762169, 50.34465 ], [ -4.763076, 50.345703 ], [ -4.76165, 50.346031 ], [ -4.753192, 50.34309 ], [ -4.751348, 50.342346 ], [ -4.750526, 50.341965 ] ] ] } },
{ "type": "Feature", "properties": { "tag-local-identifier": "Amber-Tag", "area_m2": 192896 }, "geometry": { "type": "Polygon", "coordinates": [ [ [ -4.636623, 50.338589 ], [ -4.637877, 50.339027 ], [ -4.637933, 50.339054 ], [ -4.638034, 50.339119 ], [ -4.639243, 50.340195 ], [ -4.639004, 50.340614 ], [ -4.63871, 50.340935 ], [ -4.636254, 50.341431 ], [ -4.633729, 50.341736 ], [ -4.633688, 50.341576 ], [ -4.635019, 50.339703 ], [ -4.636497, 50.338596 ], [ -4.636623, 50.338589 ] ] ] } },
{ "type": "Feature", "properties": { "tag-local-identifier": "Ares", "area_m2": 81596 }, "geometry": { "type": "Polygon", "coordinates": [ [ [ -5.115579, 50.169136 ], [ -5.116042, 50.170544 ], [ -5.115524, 50.171623 ], [ -5.112664, 50.16993 ], [ -5.115579, 50.169136 ] ] ] } },
{ "type": "Feature", "properties": { "tag-local-identifier": "Athena", "area_m2": 55022 }, "geometry": { "type": "Polygon", "coordinates": [ [ [ -5.110911, 50.168354 ], [ -5.114403, 50.1698 ], [ -5.114899, 50.170441 ], [ -5.114346, 50.170673 ], [ -5.114162, 50.170639 ], [ -5.113091, 50.170433 ], [ -5.110911, 50.168354 ] ] ] } },
{ "type": "Feature", "properties": { "tag-local-identifier": "Balu-Tag", "area_m2": 125020 }, "geometry": { "type": "Polygon", "coordinates": [ [ [ -4.377069, 50.495247 ], [ -4.378963, 50.495804 ], [ -4.378903, 50.498547 ], [ -4.375869, 50.496895 ], [ -4.375787, 50.49675 ], [ -4.376071, 50.496189 ], [ -4.37612, 50.49612 ], [ -4.377069, 50.495247 ] ] ] } },
{ "type": "Feature", "properties": { "tag-local-identifier": "Barney-Tag", "area_m2": 97164 }, "geometry": { "type": "Polygon", "coordinates": [ [ [ -4.231966, 50.404842 ], [ -4.232559, 50.404968 ], [ -4.233334, 50.405479 ], [ -4.233753, 50.40593 ], [ -4.233917, 50.406281 ], [ -4.232653, 50.40757 ], [ -4.231044, 50.406185 ], [ -4.230939, 50.406082 ], [ -4.230949, 50.405113 ], [ -4.231966, 50.404842 ] ] ] } },
{ "type": "Feature", "properties": { "tag-local-identifier": "Beanie-Tag", "area_m2": 14219 }, "geometry": { "type": "Polygon", "coordinates": [ [ [ -5.076775, 50.150387 ], [ -5.077129, 50.150517 ], [ -5.077218, 50.150578 ], [ -5.077584, 50.150913 ], [ -5.077581, 50.151138 ], [ -5.077502, 50.151402 ], [ -5.077382, 50.151459 ], [ -5.076972, 50.15139 ], [ -5.0766, 50.150948 ], [ -5.076503, 50.150806 ], [ -5.076775, 50.150387 ] ] ] } },
{ "type": "Feature", "properties": { "tag-local-identifier": "Bear-Tag", "area_m2": 714645 }, "geometry": { "type": "Polygon", "coordinates": [ [ [ -5.071296, 50.148651 ], [ -5.076035, 50.148979 ], [ -5.083248, 50.152439 ], [ -5.08469, 50.153271 ], [ -5.085176, 50.15358 ], [ -5.084678, 50.156185 ], [ -5.083722, 50.1563 ], [ -5.070982, 50.148952 ], [ -5.071296, 50.148651 ] ] ] } },
{ "type": "Feature", "properties": { "tag-local-identifier": "Bella-Tag", "area_m2": 224252 }, "geometry": { "type": "Polygon", "coordinates": [ [ [ -4.601176, 50.435188 ], [ -4.603471, 50.436455 ], [ -4.604202, 50.436943 ], [ -4.603861, 50.438244 ], [ -4.603764, 50.438297 ], [ -4.602256, 50.438221 ], [ -4.599455, 50.437485 ], [ -4.598582, 50.436977 ], [ -4.598148, 50.436401 ], [ -4.598928, 50.435982 ], [ -4.599515, 50.435677 ], [ -4.601176, 50.435188 ] ] ] } },
{ "type": "Feature", "properties": { "tag-local-identifier": "Binky-Tag", "area_m2": 221732 }, "geometry": { "type": "Polygon", "coordinates": [ [ [ -5.077049, 50.149426 ], [ -5.078326, 50.150494 ], [ -5.078722, 50.15131 ], [ -5.078325, 50.152363 ], [ -5.077673, 50.152718 ], [ -5.076334, 50.152588 ], [ -5.074827, 50.151321 ], [ -5.073112, 50.149437 ], [ -5.077049, 50.149426 ] ] ] } },
{ "type": "Feature", "properties": { "tag-local-identifier": "Bits-Tag", "area_m2": 47816 }, "geometry": { "type": "Polygon", "coordinates": [ [ [ -4.921137, 50.50766 ], [ -4.922086, 50.507748 ], [ -4.922328, 50.508217 ], [ -4.92225, 50.5084 ], [ -4.922072, 50.508633 ], [ -4.921474, 50.509033 ], [ -4.921377, 50.509087 ], [ -4.92038, 50.509083 ], [ -4.919991, 50.50877 ], [ -4.919898, 50.508614 ], [ -4.919843, 50.508511 ], [ -4.920254, 50.508202 ], [ -4.921137, 50.50766 ] ] ] } },
{ "type": "Feature", "properties": { "tag-local-identifier": "Bobs-Tag", "area_m2": 159069 }, "geometry": { "type": "Polygon", "coordinates": [ [ [ -4.919647, 50.506454 ], [ -4.919869, 50.506485 ], [ -4.924389, 50.507591 ], [ -4.924191, 50.507977 ], [ -4.92091, 50.509315 ], [ -4.920754, 50.509205 ], [ -4.920454, 50.508896 ], [ -4.919011, 50.507378 ], [ -4.919647, 50.506454 ] ] ] } },
{ "type": "Feature", "properties": { "tag-local-identifier": "Boots-Tag", "area_m2": 156371 }, "geometry": { "type": "Polygon", "coordinates": [ [ [ -5.483326, 50.140644 ], [ -5.488711, 50.142357 ], [ -5.49366, 50.144066 ], [ -5.494831, 50.144882 ], [ -5.495091, 50.145184 ], [ -5.494053, 50.145329 ], [ -5.484125, 50.141201 ], [ -5.483326, 50.140644 ] ] ] } },
{ "type": "Feature", "properties": { "tag-local-identifier": "Bumbles-Tag", "area_m2": 60416 }, "geometry": { "type": "Polygon", "coordinates": [ [ [ -5.0782, 50.147717 ], [ -5.078919, 50.148083 ], [ -5.077969, 50.149426 ], [ -5.077717, 50.149567 ], [ -5.07709, 50.149868 ], [ -5.076653, 50.149361 ], [ -5.076338, 50.148479 ], [ -5.077844, 50.147789 ], [ -5.0782, 50.147717 ] ] ] } },
{ "type": "Feature", "properties": { "tag-local-identifier": "CJ-Tag", "area_m2": 466060 }, "geometry": { "type": "Polygon", "coordinates": [ [ [ -5.21524, 50.232773 ], [ -5.218082, 50.234104 ], [ -5.221145, 50.235966 ], [ -5.219472, 50.237926 ], [ -5.209996, 50.233299 ], [ -5.212938, 50.232864 ], [ -5.21524, 50.232773 ] ] ] } },
{ "type": "Feature", "properties": { "tag-local-identifier": "Carbonel-Tag", "area_m2": 41338 }, "geometry": { "type": "Polygon", "coordinates": [ [ [ -5.079836, 50.154785 ], [ -5.080911, 50.154804 ], [ -5.081068, 50.154915 ], [ -5.081153, 50.155937 ], [ -5.080595, 50.15591 ], [ -5.079599, 50.155846 ], [ -5.079541, 50.155834 ], [ -5.079015, 50.155632 ], [ -5.078852, 50.155338 ], [ -5.079047, 50.155056 ], [ -5.079656, 50.154839 ], [ -5.079836, 50.154785 ] ] ] } },
{ "type": "Feature", "properties": { "tag-local-identifier": "Carrots-Tag", "area_m2": 160482 }, "geometry": { "type": "Polygon", "coordinates": [ [ [ -4.75798, 50.359356 ], [ -4.759945, 50.359859 ], [ -4.76034, 50.360184 ], [ -4.760108, 50.361935 ], [ -4.758537, 50.362072 ], [ -4.756594, 50.361511 ], [ -4.756656, 50.359646 ], [ -4.75798, 50.359356 ] ] ] } },
{ "type": "Feature", "properties": { "tag-local-identifier": "Casper-Tag", "area_m2": 65537 }, "geometry": { "type": "Polygon", "coordinates": [ [ [ -5.406601, 50.18475 ], [ -5.408508, 50.184776 ], [ -5.409436, 50.18568 ], [ -5.408391, 50.186619 ], [ -5.408002, 50.186913 ], [ -5.407154, 50.185711 ], [ -5.406788, 50.185139 ], [ -5.406601, 50.18475 ] ] ] } },
{ "type": "Feature", "properties": { "tag-local-identifier": "Charlie", "area_m2": 106298 }, "geometry": { "type": "Polygon", "coordinates": [ [ [ -5.077123, 50.151741 ], [ -5.077623, 50.152344 ], [ -5.077452, 50.153603 ], [ -5.076509, 50.154263 ], [ -5.075158, 50.153259 ], [ -5.073767, 50.152164 ], [ -5.077123, 50.151741 ] ] ] } },
{ "type": "Feature", "properties": { "tag-local-identifier": "Charlie2-Tag", "area_m2": 15532 }, "geometry": { "type": "Polygon", "coordinates": [ [ [ -5.048974, 50.366673 ], [ -5.050136, 50.36731 ], [ -5.050208, 50.368168 ], [ -5.049532, 50.367722 ], [ -5.049046, 50.36713 ], [ -5.049015, 50.367046 ], [ -5.048974, 50.366673 ] ] ] } },
{ "type": "Feature", "properties": { "tag-local-identifier": "Charlie3-Tag", "area_m2": 75223 }, "geometry": { "type": "Polygon", "coordinates": [ [ [ -4.521528, 50.869038 ], [ -4.522611, 50.869183 ], [ -4.522836, 50.869488 ], [ -4.520807, 50.871307 ], [ -4.519641, 50.869678 ], [ -4.519735, 50.869541 ], [ -4.521205, 50.869099 ], [ -4.521528, 50.869038 ] ] ] } },
{ "type": "Feature", "properties": { "tag-local-identifier": "Chloe-Tag", "area_m2": 40464 }, "geometry": { "type": "Polygon", "coordinates": [ [ [ -5.072371, 50.14798 ], [ -5.075792, 50.149925 ], [ -5.075947, 50.1502 ], [ -5.075123, 50.150208 ], [ -5.074331, 50.149815 ], [ -5.072944, 50.149029 ], [ -5.072371, 50.14798 ] ] ] } },
{ "type": "Feature", "properties": { "tag-local-identifier": "Coco", "area_m2": 138841 }, "geometry": { "type": "Polygon", "coordinates": [ [ [ -5.073802, 50.151115 ], [ -5.07699, 50.151295 ], [ -5.077693, 50.152458 ], [ -5.077785, 50.15321 ], [ -5.076487, 50.153629 ], [ -5.075437, 50.153824 ], [ -5.074786, 50.153004 ], [ -5.073802, 50.151115 ] ] ] } },
{ "type": "Feature", "properties": { "tag-local-identifier": "Dexter-Tag", "area_m2": 314948 }, "geometry": { "type": "Polygon", "coordinates": [ [ [ -5.292628, 50.218628 ], [ -5.293266, 50.219757 ], [ -5.293386, 50.221409 ], [ -5.29056, 50.225399 ], [ -5.289307, 50.219482 ], [ -5.292628, 50.218628 ] ] ] } },
{ "type": "Feature", "properties": { "tag-local-identifier": "Dexter2-Tag", "area_m2": 1051136 }, "geometry": { "type": "Polygon", "coordinates": [ [ [ -4.958859, 50.469383 ], [ -4.96146, 50.469486 ], [ -4.979781, 50.478741 ], [ -4.980668, 50.479534 ], [ -4.982018, 50.482452 ], [ -4.981932, 50.48315 ], [ -4.980862, 50.482956 ], [ -4.958859, 50.469383 ] ] ] } },
{ "type": "Feature", "properties": { "tag-local-identifier": "Dory-Tag", "area_m2": 85004 }, "geometry": { "type": "Polygon", "coordinates": [ [ [ -5.48993, 50.204422 ], [ -5.491158, 50.204887 ], [ -5.491871, 50.206444 ], [ -5.486417, 50.204472 ], [ -5.48993, 50.204422 ] ] ] } },
{ "type": "Feature", "properties": { "tag-local-identifier": "Ebby-Tag", "area_m2": 27651 }, "geometry": { "type": "Polygon", "coordinates": [ [ [ -5.077115, 50.148422 ], [ -5.077721, 50.148834 ], [ -5.077816, 50.1492 ], [ -5.07655, 50.150066 ], [ -5.076409, 50.148556 ], [ -5.077115, 50.148422 ] ] ] } },
{ "type": "Feature", "properties": { "tag-local-identifier": "Ernie-Tag", "area_m2": 84272 }, "geometry": { "type": "Polygon", "coordinates": [ [ [ -4.636945, 50.3386 ], [ -4.63714, 50.338661 ], [ -4.637883, 50.338898 ], [ -4.638478, 50.339397 ], [ -4.63925, 50.340485 ], [ -4.637283, 50.340706 ], [ -4.637141, 50.340702 ], [ -4.63623, 50.340412 ], [ -4.636345, 50.338799 ], [ -4.636783, 50.338623 ], [ -4.636945, 50.3386 ] ] ] } },
{ "type": "Feature", "properties": { "tag-local-identifier": "Fairclough-Tag", "area_m2": 20642 }, "geometry": { "type": "Polygon", "coordinates": [ [ [ -5.175527, 50.11974 ], [ -5.176098, 50.119999 ], [ -5.176124, 50.120018 ], [ -5.176075, 50.120407 ], [ -5.175666, 50.12056 ], [ -5.174675, 50.120663 ], [ -5.174677, 50.119984 ], [ -5.17468, 50.119835 ], [ -5.175527, 50.11974 ] ] ] } },
{ "type": "Feature", "properties": { "tag-local-identifier": "Felix-Tag", "area_m2": 40867 }, "geometry": { "type": "Polygon", "coordinates": [ [ [ -5.081472, 50.28796 ], [ -5.081541, 50.288727 ], [ -5.081125, 50.290188 ], [ -5.080575, 50.289513 ], [ -5.080047, 50.288811 ], [ -5.079965, 50.288239 ], [ -5.081472, 50.28796 ] ] ] } },
{ "type": "Feature", "properties": { "tag-local-identifier": "Flash-Tag", "area_m2": 12547 }, "geometry": { "type": "Polygon", "coordinates": [ [ [ -5.012537, 50.350471 ], [ -5.012929, 50.350708 ], [ -5.012729, 50.351128 ], [ -5.011022, 50.350666 ], [ -5.012201, 50.350483 ], [ -5.012537, 50.350471 ] ] ] } },
{ "type": "Feature", "properties": { "tag-local-identifier": "Fonzie-Tag", "area_m2": 110100 }, "geometry": { "type": "Polygon", "coordinates": [ [ [ -4.235575, 50.405071 ], [ -4.233303, 50.407585 ], [ -4.231755, 50.407249 ], [ -4.231306, 50.406635 ], [ -4.231704, 50.40588 ], [ -4.231853, 50.405724 ], [ -4.232129, 50.405605 ], [ -4.235575, 50.405071 ] ] ] } },
{ "type": "Feature", "properties": { "tag-local-identifier": "Frank-Tag", "area_m2": 454459 }, "geometry": { "type": "Polygon", "coordinates": [ [ [ -4.748197, 50.355961 ], [ -4.753387, 50.357418 ], [ -4.757676, 50.359703 ], [ -4.758686, 50.360382 ], [ -4.761307, 50.362225 ], [ -4.758053, 50.362694 ], [ -4.749258, 50.357117 ], [ -4.748197, 50.355961 ] ] ] } },
{ "type": "Feature", "properties": { "tag-local-identifier": "Frank_2-Tag", "area_m2": 222868 }, "geometry": { "type": "Polygon", "coordinates": [ [ [ -5.534265, 50.116745 ], [ -5.537307, 50.11903 ], [ -5.538066, 50.120777 ], [ -5.537918, 50.121319 ], [ -5.537144, 50.122581 ], [ -5.533987, 50.11908 ], [ -5.534091, 50.117016 ], [ -5.534265, 50.116745 ] ] ] } },
{ "type": "Feature", "properties": { "tag-local-identifier": "Freya-Tag", "area_m2": 58728 }, "geometry": { "type": "Polygon", "coordinates": [ [ [ -5.281934, 50.201874 ], [ -5.282567, 50.2024 ], [ -5.283046, 50.203785 ], [ -5.282134, 50.204021 ], [ -5.281758, 50.203815 ], [ -5.281182, 50.203335 ], [ -5.280971, 50.203094 ], [ -5.281053, 50.20216 ], [ -5.281073, 50.20195 ], [ -5.281934, 50.201874 ] ] ] } },
{ "type": "Feature", "properties": { "tag-local-identifier": "Friday", "area_m2": 36914 }, "geometry": { "type": "Polygon", "coordinates": [ [ [ -5.074395, 50.159027 ], [ -5.07491, 50.159546 ], [ -5.075632, 50.160561 ], [ -5.075646, 50.161133 ], [ -5.075149, 50.161095 ], [ -5.07413, 50.160831 ], [ -5.074109, 50.16069 ], [ -5.074395, 50.159027 ] ] ] } },
{ "type": "Feature", "properties": { "tag-local-identifier": "Ginge-Tag", "area_m2": 445201 }, "geometry": { "type": "Polygon", "coordinates": [ [ [ -5.151541, 50.263962 ], [ -5.157247, 50.264957 ], [ -5.157402, 50.265762 ], [ -5.157375, 50.265911 ], [ -5.157228, 50.266563 ], [ -5.157197, 50.266693 ], [ -5.156818, 50.267887 ], [ -5.155813, 50.268227 ], [ -5.152908, 50.268513 ], [ -5.152657, 50.268536 ], [ -5.151546, 50.2682 ], [ -5.151305, 50.267948 ], [ -5.151231, 50.267845 ], [ -5.151149, 50.267345 ], [ -5.151294, 50.263985 ], [ -5.151541, 50.263962 ] ] ] } },
{ "type": "Feature", "properties": { "tag-local-identifier": "Gracie-Tag", "area_m2": 23983 }, "geometry": { "type": "Polygon", "coordinates": [ [ [ -5.066377, 50.151073 ], [ -5.066497, 50.151733 ], [ -5.066568, 50.152393 ], [ -5.066209, 50.152653 ], [ -5.065992, 50.152767 ], [ -5.06526, 50.151939 ], [ -5.065413, 50.151783 ], [ -5.066377, 50.151073 ] ] ] } },
{ "type": "Feature", "properties": { "tag-local-identifier": "Gracie_2-Tag", "area_m2": 240432 }, "geometry": { "type": "Polygon", "coordinates": [ [ [ -5.291698, 50.207909 ], [ -5.295237, 50.20792 ], [ -5.295241, 50.212208 ], [ -5.293475, 50.212379 ], [ -5.292666, 50.211166 ], [ -5.291698, 50.207909 ] ] ] } },
{ "type": "Feature", "properties": { "tag-local-identifier": "Guinness-Tag", "area_m2": 101731 }, "geometry": { "type": "Polygon", "coordinates": [ [ [ -4.944107, 50.426559 ], [ -4.945397, 50.426758 ], [ -4.946146, 50.427204 ], [ -4.945058, 50.429134 ], [ -4.943232, 50.428501 ], [ -4.943056, 50.427933 ], [ -4.943517, 50.426895 ], [ -4.944107, 50.426559 ] ] ] } },
{ "type": "Feature", "properties": { "tag-local-identifier": "Henry-Tag", "area_m2": 9953 }, "geometry": { "type": "Polygon", "coordinates": [ [ [ -5.105659, 50.175018 ], [ -5.10589, 50.175079 ], [ -5.106709, 50.175449 ], [ -5.106573, 50.176174 ], [ -5.106433, 50.176067 ], [ -5.106125, 50.175777 ], [ -5.105931, 50.175484 ], [ -5.105659, 50.175018 ] ] ] } },
{ "type": "Feature", "properties": { "tag-local-identifier": "Indie-Tag", "area_m2": 92209 }, "geometry": { "type": "Polygon", "coordinates": [ [ [ -5.061758, 50.14592 ], [ -5.063304, 50.146049 ], [ -5.063492, 50.146496 ], [ -5.063509, 50.146599 ], [ -5.063594, 50.148384 ], [ -5.063262, 50.148815 ], [ -5.061028, 50.147099 ], [ -5.060971, 50.147003 ], [ -5.061758, 50.14592 ] ] ] } },
{ "type": "Feature", "properties": { "tag-local-identifier": "Jago", "area_m2": 199607 }, "geometry": { "type": "Polygon", "coordinates": [ [ [ -5.071817, 50.15134 ], [ -5.074627, 50.151405 ], [ -5.074888, 50.152462 ], [ -5.074886, 50.154404 ], [ -5.07319, 50.154259 ], [ -5.072014, 50.154015 ], [ -5.070993, 50.153751 ], [ -5.071004, 50.152588 ], [ -5.071147, 50.152046 ], [ -5.071817, 50.15134 ] ] ] } },
{ "type": "Feature", "properties": { "tag-local-identifier": "Jago2-Tag", "area_m2": 281698 }, "geometry": { "type": "Polygon", "coordinates": [ [ [ -5.49011, 50.143124 ], [ -5.493124, 50.143448 ], [ -5.494072, 50.1436 ], [ -5.494481, 50.14465 ], [ -5.49473, 50.145302 ], [ -5.494431, 50.145504 ], [ -5.492854, 50.146255 ], [ -5.492242, 50.146214 ], [ -5.49202, 50.146191 ], [ -5.488153, 50.145321 ], [ -5.487932, 50.14505 ], [ -5.488003, 50.144844 ], [ -5.49011, 50.143124 ] ] ] } },
{ "type": "Feature", "properties": { "tag-local-identifier": "Jasper-Tag", "area_m2": 140680 }, "geometry": { "type": "Polygon", "coordinates": [ [ [ -4.450494, 50.528591 ], [ -4.450761, 50.529209 ], [ -4.4502, 50.529652 ], [ -4.449934, 50.529812 ], [ -4.446623, 50.530956 ], [ -4.443991, 50.529903 ], [ -4.449014, 50.528885 ], [ -4.450494, 50.528591 ] ] ] } },
{ "type": "Feature", "properties": { "tag-local-identifier": "Jessie-Tag", "area_m2": 21587 }, "geometry": { "type": "Polygon", "coordinates": [ [ [ -5.27961, 50.21352 ], [ -5.280071, 50.213787 ], [ -5.280231, 50.213974 ], [ -5.279893, 50.214546 ], [ -5.279363, 50.214687 ], [ -5.27881, 50.21476 ], [ -5.27869, 50.214382 ], [ -5.279141, 50.213943 ], [ -5.27961, 50.21352 ] ] ] } },
{ "type": "Feature", "properties": { "tag-local-identifier": "Jessy-Tag", "area_m2": 134361 }, "geometry": { "type": "Polygon", "coordinates": [ [ [ -4.308287, 50.531647 ], [ -4.309172, 50.531857 ], [ -4.31001, 50.532581 ], [ -4.309996, 50.534321 ], [ -4.309952, 50.534409 ], [ -4.308609, 50.535564 ], [ -4.308339, 50.5355 ], [ -4.307572, 50.533066 ], [ -4.307738, 50.531979 ], [ -4.308287, 50.531647 ] ] ] } },
{ "type": "Feature", "properties": { "tag-local-identifier": "Jezebel-Tag", "area_m2": 198764 }, "geometry": { "type": "Polygon", "coordinates": [ [ [ -5.492146, 50.138565 ], [ -5.492843, 50.139629 ], [ -5.494846, 50.143181 ], [ -5.494381, 50.146149 ], [ -5.494044, 50.145969 ], [ -5.492788, 50.14476 ], [ -5.492603, 50.143448 ], [ -5.492054, 50.138878 ], [ -5.492146, 50.138565 ] ] ] } },
{ "type": "Feature", "properties": { "tag-local-identifier": "Jim-Tag", "area_m2": 86859 }, "geometry": { "type": "Polygon", "coordinates": [ [ [ -5.071258, 50.15134 ], [ -5.071528, 50.153847 ], [ -5.069896, 50.153606 ], [ -5.069197, 50.152874 ], [ -5.069484, 50.151508 ], [ -5.071258, 50.15134 ] ] ] } },
{ "type": "Feature", "properties": { "tag-local-identifier": "Johnny-Tag", "area_m2": 108364 }, "geometry": { "type": "Polygon", "coordinates": [ [ [ -5.066356, 50.233574 ], [ -5.067048, 50.233711 ], [ -5.067472, 50.234161 ], [ -5.068148, 50.235077 ], [ -5.065657, 50.236275 ], [ -5.065096, 50.235966 ], [ -5.06437, 50.235321 ], [ -5.065233, 50.234493 ], [ -5.066356, 50.233574 ] ] ] } },
{ "type": "Feature", "properties": { "tag-local-identifier": "Keegan-Tag", "area_m2": 276588 }, "geometry": { "type": "Polygon", "coordinates": [ [ [ -5.174341, 50.117481 ], [ -5.175734, 50.117641 ], [ -5.176137, 50.117985 ], [ -5.177135, 50.121128 ], [ -5.173, 50.120796 ], [ -5.170918, 50.119946 ], [ -5.17216, 50.118797 ], [ -5.174341, 50.117481 ] ] ] } },
{ "type": "Feature", "properties": { "tag-local-identifier": "Lady T-Tag", "area_m2": 23832 }, "geometry": { "type": "Polygon", "coordinates": [ [ [ -4.457999, 50.451546 ], [ -4.45846, 50.451729 ], [ -4.458796, 50.451878 ], [ -4.458897, 50.451965 ], [ -4.458805, 50.452324 ], [ -4.458727, 50.452518 ], [ -4.457874, 50.452518 ], [ -4.457586, 50.452515 ], [ -4.457483, 50.452404 ], [ -4.457093, 50.451942 ], [ -4.457999, 50.451546 ] ] ] } },
{ "type": "Feature", "properties": { "tag-local-identifier": "Ladyboyhawke-Tag", "area_m2": 333866 }, "geometry": { "type": "Polygon", "coordinates": [ [ [ -4.869155, 50.572285 ], [ -4.871592, 50.572556 ], [ -4.873127, 50.572826 ], [ -4.873606, 50.573025 ], [ -4.873759, 50.573345 ], [ -4.873988, 50.573898 ], [ -4.873487, 50.575741 ], [ -4.873308, 50.575859 ], [ -4.873005, 50.575832 ], [ -4.865758, 50.5732 ], [ -4.865462, 50.572788 ], [ -4.865638, 50.572609 ], [ -4.868042, 50.57233 ], [ -4.869155, 50.572285 ] ] ] } },
{ "type": "Feature", "properties": { "tag-local-identifier": "Lightening Bugg-Tag", "area_m2": 152006 }, "geometry": { "type": "Polygon", "coordinates": [ [ [ -4.920087, 50.506107 ], [ -4.922941, 50.506958 ], [ -4.923781, 50.507328 ], [ -4.924014, 50.507679 ], [ -4.92316, 50.508572 ], [ -4.919889, 50.509007 ], [ -4.920087, 50.506107 ] ] ] } },
{ "type": "Feature", "properties": { "tag-local-identifier": "Lily-Tag", "area_m2": 13145 }, "geometry": { "type": "Polygon", "coordinates": [ [ [ -4.651473, 50.337986 ], [ -4.65118, 50.338993 ], [ -4.650657, 50.338871 ], [ -4.650367, 50.33876 ], [ -4.650447, 50.338348 ], [ -4.650718, 50.338203 ], [ -4.651473, 50.337986 ] ] ] } },
{ "type": "Feature", "properties": { "tag-local-identifier": "Lola", "area_m2": 332337 }, "geometry": { "type": "Polygon", "coordinates": [ [ [ -5.07385, 50.142307 ], [ -5.075027, 50.146336 ], [ -5.074844, 50.147724 ], [ -5.073022, 50.147888 ], [ -5.069579, 50.144562 ], [ -5.07385, 50.142307 ] ] ] } },
{ "type": "Feature", "properties": { "tag-local-identifier": "Lucy-Tag", "area_m2": 23034 }, "geometry": { "type": "Polygon", "coordinates": [ [ [ -5.275492, 50.2141 ], [ -5.275264, 50.215256 ], [ -5.27521, 50.215439 ], [ -5.274901, 50.21574 ], [ -5.2739, 50.215084 ], [ -5.275492, 50.2141 ] ] ] } },
{ "type": "Feature", "properties": { "tag-local-identifier": "Macaulay Mccat-Tag", "area_m2": 71726 }, "geometry": { "type": "Polygon", "coordinates": [ [ [ -5.190582, 50.233841 ], [ -5.191893, 50.234344 ], [ -5.191697, 50.236107 ], [ -5.190394, 50.235756 ], [ -5.189875, 50.235409 ], [ -5.189857, 50.235352 ], [ -5.189654, 50.233974 ], [ -5.190582, 50.233841 ] ] ] } },
{ "type": "Feature", "properties": { "tag-local-identifier": "Maggie-Tag", "area_m2": 38455 }, "geometry": { "type": "Polygon", "coordinates": [ [ [ -4.649659, 50.337582 ], [ -4.651062, 50.337639 ], [ -4.651592, 50.338066 ], [ -4.6522, 50.33865 ], [ -4.651313, 50.339142 ], [ -4.650888, 50.338959 ], [ -4.649659, 50.337582 ] ] ] } },
{ "type": "Feature", "properties": { "tag-local-identifier": "Magic-Tag", "area_m2": 8797 }, "geometry": { "type": "Polygon", "coordinates": [ [ [ -5.083032, 50.161095 ], [ -5.083314, 50.161186 ], [ -5.083766, 50.161358 ], [ -5.083622, 50.16217 ], [ -5.08337, 50.1619 ], [ -5.082962, 50.161392 ], [ -5.083032, 50.161095 ] ] ] } },
{ "type": "Feature", "properties": { "tag-local-identifier": "Marley-Tag", "area_m2": 245121 }, "geometry": { "type": "Polygon", "coordinates": [ [ [ -5.071099, 50.266632 ], [ -5.07162, 50.266876 ], [ -5.07474, 50.268757 ], [ -5.074815, 50.270657 ], [ -5.071383, 50.270523 ], [ -5.070206, 50.268131 ], [ -5.070122, 50.267529 ], [ -5.070114, 50.26746 ], [ -5.070282, 50.267178 ], [ -5.070599, 50.266701 ], [ -5.071099, 50.266632 ] ] ] } },
{ "type": "Feature", "properties": { "tag-local-identifier": "Maverick", "area_m2": 328507 }, "geometry": { "type": "Polygon", "coordinates": [ [ [ -5.072452, 50.143269 ], [ -5.07936, 50.143707 ], [ -5.08263, 50.14608 ], [ -5.082984, 50.146393 ], [ -5.083739, 50.148045 ], [ -5.079992, 50.146614 ], [ -5.077074, 50.145325 ], [ -5.072452, 50.143269 ] ] ] } },
{ "type": "Feature", "properties": { "tag-local-identifier": "Max-Tag", "area_m2": 1601872 }, "geometry": { "type": "Polygon", "coordinates": [ [ [ -5.029273, 50.361423 ], [ -5.049674, 50.367188 ], [ -5.049979, 50.367374 ], [ -5.05011, 50.367569 ], [ -5.050142, 50.367619 ], [ -5.049919, 50.367977 ], [ -5.04524, 50.36974 ], [ -5.033826, 50.368206 ], [ -5.028268, 50.362484 ], [ -5.028163, 50.36216 ], [ -5.028188, 50.36187 ], [ -5.028219, 50.361828 ], [ -5.029273, 50.361423 ] ] ] } },
{ "type": "Feature", "properties": { "tag-local-identifier": "Maxwell-Tag", "area_m2": 142703 }, "geometry": { "type": "Polygon", "coordinates": [ [ [ -4.838098, 50.508846 ], [ -4.83964, 50.509541 ], [ -4.839984, 50.511143 ], [ -4.839013, 50.511452 ], [ -4.83781, 50.511703 ], [ -4.835694, 50.511036 ], [ -4.838098, 50.508846 ] ] ] } },
{ "type": "Feature", "properties": { "tag-local-identifier": "Meg-Tag", "area_m2": 55255 }, "geometry": { "type": "Polygon", "coordinates": [ [ [ -5.113595, 50.169361 ], [ -5.114584, 50.170578 ], [ -5.114487, 50.171192 ], [ -5.114209, 50.171364 ], [ -5.113674, 50.171482 ], [ -5.113079, 50.171062 ], [ -5.112664, 50.170662 ], [ -5.112493, 50.169785 ], [ -5.113595, 50.169361 ] ] ] } },
{ "type": "Feature", "properties": { "tag-local-identifier": "Merlin-Tag", "area_m2": 228872 }, "geometry": { "type": "Polygon", "coordinates": [ [ [ -4.213715, 50.497711 ], [ -4.215776, 50.497925 ], [ -4.220255, 50.49852 ], [ -4.220715, 50.498741 ], [ -4.224639, 50.5014 ], [ -4.224978, 50.502098 ], [ -4.2216, 50.500866 ], [ -4.214223, 50.497948 ], [ -4.213715, 50.497711 ] ] ] } },
{ "type": "Feature", "properties": { "tag-local-identifier": "Mifty-Tag", "area_m2": 217746 }, "geometry": { "type": "Polygon", "coordinates": [ [ [ -5.066896, 50.265209 ], [ -5.067875, 50.26535 ], [ -5.069906, 50.266132 ], [ -5.070995, 50.266567 ], [ -5.069078, 50.267876 ], [ -5.066504, 50.268101 ], [ -5.065887, 50.267902 ], [ -5.065014, 50.266541 ], [ -5.066238, 50.265266 ], [ -5.066896, 50.265209 ] ] ] } },
{ "type": "Feature", "properties": { "tag-local-identifier": "Millie-Tag", "area_m2": 102146 }, "geometry": { "type": "Polygon", "coordinates": [ [ [ -4.519911, 50.867867 ], [ -4.523016, 50.869045 ], [ -4.523784, 50.870518 ], [ -4.52141, 50.870632 ], [ -4.519911, 50.867867 ] ] ] } },
{ "type": "Feature", "properties": { "tag-local-identifier": "Missy-Tag", "area_m2": 112107 }, "geometry": { "type": "Polygon", "coordinates": [ [ [ -4.794479, 50.33144 ], [ -4.794621, 50.331478 ], [ -4.796368, 50.332466 ], [ -4.796594, 50.333504 ], [ -4.796442, 50.333782 ], [ -4.796163, 50.334229 ], [ -4.795424, 50.334774 ], [ -4.794166, 50.333183 ], [ -4.793554, 50.331902 ], [ -4.793958, 50.331509 ], [ -4.794479, 50.33144 ] ] ] } },
{ "type": "Feature", "properties": { "tag-local-identifier": "Morpheus-Tag", "area_m2": 52447 }, "geometry": { "type": "Polygon", "coordinates": [ [ [ -5.085166, 50.157188 ], [ -5.087678, 50.158031 ], [ -5.087944, 50.15873 ], [ -5.087958, 50.15892 ], [ -5.087953, 50.159069 ], [ -5.087104, 50.159405 ], [ -5.086832, 50.159233 ], [ -5.086249, 50.158592 ], [ -5.086055, 50.158371 ], [ -5.085166, 50.157188 ] ] ] } },
{ "type": "Feature", "properties": { "tag-local-identifier": "Moscow-Tag", "area_m2": 21196 }, "geometry": { "type": "Polygon", "coordinates": [ [ [ -5.079051, 50.161469 ], [ -5.07993, 50.16156 ], [ -5.080264, 50.162067 ], [ -5.080084, 50.162224 ], [ -5.079957, 50.162296 ], [ -5.079665, 50.162376 ], [ -5.079493, 50.162403 ], [ -5.079353, 50.162399 ], [ -5.078691, 50.161983 ], [ -5.078675, 50.161915 ], [ -5.07861, 50.161541 ], [ -5.079051, 50.161469 ] ] ] } },
{ "type": "Feature", "properties": { "tag-local-identifier": "Neil-Tag", "area_m2": 86671 }, "geometry": { "type": "Polygon", "coordinates": [ [ [ -5.53657, 50.126637 ], [ -5.537726, 50.127155 ], [ -5.537981, 50.128551 ], [ -5.536635, 50.128906 ], [ -5.535323, 50.12904 ], [ -5.535517, 50.127525 ], [ -5.53657, 50.126637 ] ] ] } },
{ "type": "Feature", "properties": { "tag-local-identifier": "Nettle-Tag", "area_m2": 61630 }, "geometry": { "type": "Polygon", "coordinates": [ [ [ -5.085603, 50.157188 ], [ -5.086946, 50.158195 ], [ -5.087343, 50.158939 ], [ -5.086512, 50.159325 ], [ -5.085428, 50.159252 ], [ -5.084788, 50.159168 ], [ -5.085544, 50.157257 ], [ -5.085603, 50.157188 ] ] ] } },
{ "type": "Feature", "properties": { "tag-local-identifier": "Neva-Tag", "area_m2": 13544 }, "geometry": { "type": "Polygon", "coordinates": [ [ [ -5.079643, 50.161812 ], [ -5.080487, 50.161858 ], [ -5.080393, 50.162186 ], [ -5.080232, 50.162521 ], [ -5.079496, 50.162544 ], [ -5.079225, 50.162041 ], [ -5.079643, 50.161812 ] ] ] } },
{ "type": "Feature", "properties": { "tag-local-identifier": "Pants-Tag", "area_m2": 25255 }, "geometry": { "type": "Polygon", "coordinates": [ [ [ -5.070836, 50.151733 ], [ -5.070675, 50.153 ], [ -5.070515, 50.153278 ], [ -5.069791, 50.152851 ], [ -5.069499, 50.152493 ], [ -5.069497, 50.152122 ], [ -5.070836, 50.151733 ] ] ] } },
{ "type": "Feature", "properties": { "tag-local-identifier": "Poppet-Tag", "area_m2": 403972 }, "geometry": { "type": "Polygon", "coordinates": [ [ [ -4.871238, 50.570553 ], [ -4.876408, 50.574844 ], [ -4.873504, 50.576782 ], [ -4.873366, 50.57679 ], [ -4.870389, 50.576546 ], [ -4.871238, 50.570553 ] ] ] } },
{ "type": "Feature", "properties": { "tag-local-identifier": "Pussy-Tag", "area_m2": 287359 }, "geometry": { "type": "Polygon", "coordinates": [ [ [ -4.874744, 50.573822 ], [ -4.874145, 50.575741 ], [ -4.873456, 50.576584 ], [ -4.870244, 50.578354 ], [ -4.870223, 50.578365 ], [ -4.868726, 50.578461 ], [ -4.868762, 50.577614 ], [ -4.868853, 50.57737 ], [ -4.870762, 50.574593 ], [ -4.874744, 50.573822 ] ] ] } },
{ "type": "Feature", "properties": { "tag-local-identifier": "Reggie-Tag", "area_m2": 68286 }, "geometry": { "type": "Polygon", "coordinates": [ [ [ -5.28944, 50.208916 ], [ -5.293252, 50.209145 ], [ -5.293811, 50.209316 ], [ -5.294191, 50.209694 ], [ -5.294331, 50.210014 ], [ -5.293783, 50.210583 ], [ -5.289876, 50.209137 ], [ -5.28944, 50.208916 ] ] ] } },
{ "type": "Feature", "properties": { "tag-local-identifier": "Roger-Tag", "area_m2": 59092 }, "geometry": { "type": "Polygon", "coordinates": [ [ [ -5.089868, 50.152245 ], [ -5.092067, 50.152416 ], [ -5.092142, 50.152527 ], [ -5.092421, 50.154076 ], [ -5.090302, 50.153412 ], [ -5.089789, 50.152611 ], [ -5.089868, 50.152245 ] ] ] } },
{ "type": "Feature", "properties": { "tag-local-identifier": "Rusty-Tag", "area_m2": 98538 }, "geometry": { "type": "Polygon", "coordinates": [ [ [ -5.062155, 50.145931 ], [ -5.064406, 50.146103 ], [ -5.064192, 50.14653 ], [ -5.06387, 50.146835 ], [ -5.063027, 50.147408 ], [ -5.061277, 50.148079 ], [ -5.060288, 50.147903 ], [ -5.061337, 50.14616 ], [ -5.062155, 50.145931 ] ] ] } },
{ "type": "Feature", "properties": { "tag-local-identifier": "Seb-Tag", "area_m2": 51452 }, "geometry": { "type": "Polygon", "coordinates": [ [ [ -5.217945, 50.235046 ], [ -5.219471, 50.236397 ], [ -5.219672, 50.236778 ], [ -5.219306, 50.237019 ], [ -5.218896, 50.237278 ], [ -5.218514, 50.237324 ], [ -5.218265, 50.237309 ], [ -5.217572, 50.23658 ], [ -5.217945, 50.235046 ] ] ] } },
{ "type": "Feature", "properties": { "tag-local-identifier": "Siberia-Tag", "area_m2": 51471 }, "geometry": { "type": "Polygon", "coordinates": [ [ [ -5.141338, 50.117569 ], [ -5.143773, 50.118492 ], [ -5.143642, 50.118698 ], [ -5.143607, 50.11874 ], [ -5.143181, 50.119053 ], [ -5.142785, 50.119289 ], [ -5.141852, 50.119511 ], [ -5.141554, 50.119183 ], [ -5.141338, 50.117569 ] ] ] } },
{ "type": "Feature", "properties": { "tag-local-identifier": "Sid-Tag", "area_m2": 48936 }, "geometry": { "type": "Polygon", "coordinates": [ [ [ -5.076098, 50.14904 ], [ -5.077797, 50.150547 ], [ -5.07777, 50.15139 ], [ -5.077641, 50.151897 ], [ -5.076995, 50.151489 ], [ -5.076345, 50.150974 ], [ -5.076238, 50.150505 ], [ -5.076098, 50.14904 ] ] ] } },
{ "type": "Feature", "properties": { "tag-local-identifier": "Skye-Tag", "area_m2": 16128 }, "geometry": { "type": "Polygon", "coordinates": [ [ [ -5.491375, 50.204948 ], [ -5.490916, 50.205883 ], [ -5.490241, 50.205761 ], [ -5.490039, 50.205585 ], [ -5.489737, 50.205288 ], [ -5.490157, 50.205185 ], [ -5.491375, 50.204948 ] ] ] } },
{ "type": "Feature", "properties": { "tag-local-identifier": "SmokeyLongnose-Tag", "area_m2": 49762 }, "geometry": { "type": "Polygon", "coordinates": [ [ [ -5.554395, 50.123615 ], [ -5.555945, 50.124081 ], [ -5.554175, 50.12566 ], [ -5.553336, 50.124928 ], [ -5.554395, 50.123615 ] ] ] } },
{ "type": "Feature", "properties": { "tag-local-identifier": "Smudge-Tag", "area_m2": 30266 }, "geometry": { "type": "Polygon", "coordinates": [ [ [ -5.08322, 50.160892 ], [ -5.083801, 50.160957 ], [ -5.084229, 50.16172 ], [ -5.083596, 50.162189 ], [ -5.08316, 50.162285 ], [ -5.082786, 50.162289 ], [ -5.08274, 50.161068 ], [ -5.08322, 50.160892 ] ] ] } },
{ "type": "Feature", "properties": { "tag-local-identifier": "Smudge_2-Tag", "area_m2": 195172 }, "geometry": { "type": "Polygon", "coordinates": [ [ [ -4.754753, 50.358219 ], [ -4.759854, 50.358521 ], [ -4.760692, 50.359577 ], [ -4.759256, 50.360214 ], [ -4.757835, 50.360764 ], [ -4.757238, 50.360626 ], [ -4.75418, 50.358734 ], [ -4.754179, 50.358448 ], [ -4.754753, 50.358219 ] ] ] } },
{ "type": "Feature", "properties": { "tag-local-identifier": "Sparky-Tag", "area_m2": 96805 }, "geometry": { "type": "Polygon", "coordinates": [ [ [ -4.208614, 50.328724 ], [ -4.210787, 50.328957 ], [ -4.21135, 50.329315 ], [ -4.2122, 50.330582 ], [ -4.212532, 50.331196 ], [ -4.212219, 50.331879 ], [ -4.211645, 50.331745 ], [ -4.208614, 50.328724 ] ] ] } },
{ "type": "Feature", "properties": { "tag-local-identifier": "Spike-Tag", "area_m2": 967529 }, "geometry": { "type": "Polygon", "coordinates": [ [ [ -5.493263, 50.136597 ], [ -5.49965, 50.143665 ], [ -5.494678, 50.147224 ], [ -5.494573, 50.147278 ], [ -5.4941, 50.147457 ], [ -5.493243, 50.14756 ], [ -5.491294, 50.147324 ], [ -5.49104, 50.14727 ], [ -5.490901, 50.14698 ], [ -5.493263, 50.136597 ] ] ] } },
{ "type": "Feature", "properties": { "tag-local-identifier": "Spot-Tag", "area_m2": 54614 }, "geometry": { "type": "Polygon", "coordinates": [ [ [ -5.281218, 50.202339 ], [ -5.281626, 50.202381 ], [ -5.282207, 50.202579 ], [ -5.283213, 50.203083 ], [ -5.283921, 50.203945 ], [ -5.281987, 50.20396 ], [ -5.281589, 50.20396 ], [ -5.281219, 50.20327 ], [ -5.281218, 50.202339 ] ] ] } },
{ "type": "Feature", "properties": { "tag-local-identifier": "Teddy-Tag", "area_m2": 131647 }, "geometry": { "type": "Polygon", "coordinates": [ [ [ -4.767129, 50.327034 ], [ -4.76918, 50.327446 ], [ -4.770502, 50.328403 ], [ -4.770774, 50.329178 ], [ -4.769064, 50.329834 ], [ -4.768743, 50.329906 ], [ -4.767063, 50.328335 ], [ -4.766749, 50.327934 ], [ -4.766707, 50.327812 ], [ -4.767129, 50.327034 ] ] ] } },
{ "type": "Feature", "properties": { "tag-local-identifier": "Tigger-Tag", "area_m2": 14663 }, "geometry": { "type": "Polygon", "coordinates": [ [ [ -5.083194, 50.160713 ], [ -5.083486, 50.160885 ], [ -5.083867, 50.16132 ], [ -5.083905, 50.161697 ], [ -5.083608, 50.161751 ], [ -5.08312, 50.161774 ], [ -5.082859, 50.161346 ], [ -5.082948, 50.160973 ], [ -5.083194, 50.160713 ] ] ] } },
{ "type": "Feature", "properties": { "tag-local-identifier": "Tilly-Tag", "area_m2": 207581 }, "geometry": { "type": "Polygon", "coordinates": [ [ [ -5.298522, 50.219593 ], [ -5.301344, 50.22176 ], [ -5.300126, 50.222927 ], [ -5.295223, 50.222401 ], [ -5.298522, 50.219593 ] ] ] } },
{ "type": "Feature", "properties": { "tag-local-identifier": "Tipsy-Tag", "area_m2": 99313 }, "geometry": { "type": "Polygon", "coordinates": [ [ [ -5.011188, 50.34808 ], [ -5.011642, 50.3484 ], [ -5.014732, 50.350948 ], [ -5.012714, 50.35133 ], [ -5.01233, 50.351372 ], [ -5.012161, 50.351227 ], [ -5.010837, 50.348194 ], [ -5.011188, 50.34808 ] ] ] } },
{ "type": "Feature", "properties": { "tag-local-identifier": "Tom-Tag", "area_m2": 1024332 }, "geometry": { "type": "Polygon", "coordinates": [ [ [ -4.599491, 50.435307 ], [ -4.602794, 50.435741 ], [ -4.610664, 50.438461 ], [ -4.610399, 50.439304 ], [ -4.608382, 50.440102 ], [ -4.603986, 50.440891 ], [ -4.601464, 50.441086 ], [ -4.599894, 50.440777 ], [ -4.599479, 50.440681 ], [ -4.598464, 50.439964 ], [ -4.597013, 50.437294 ], [ -4.597381, 50.435387 ], [ -4.599491, 50.435307 ] ] ] } },
{ "type": "Feature", "properties": { "tag-local-identifier": "Tommy-Tag", "area_m2": 37989 }, "geometry": { "type": "Polygon", "coordinates": [ [ [ -5.111629, 50.170059 ], [ -5.112605, 50.170254 ], [ -5.11272, 50.170567 ], [ -5.112754, 50.171612 ], [ -5.111991, 50.171844 ], [ -5.111039, 50.17012 ], [ -5.111629, 50.170059 ] ] ] } },
{ "type": "Feature", "properties": { "tag-local-identifier": "Whiskey-Tag", "area_m2": 150239 }, "geometry": { "type": "Polygon", "coordinates": [ [ [ -5.14081, 50.151718 ], [ -5.141336, 50.152069 ], [ -5.142468, 50.15287 ], [ -5.142953, 50.153225 ], [ -5.141768, 50.154461 ], [ -5.138746, 50.154606 ], [ -5.139304, 50.152592 ], [ -5.139331, 50.152527 ], [ -5.14081, 50.151718 ] ] ] } },
{ "type": "Feature", "properties": { "tag-local-identifier": "Wilfred-Tag", "area_m2": 131232 }, "geometry": { "type": "Polygon", "coordinates": [ [ [ -5.117591, 50.207809 ], [ -5.12298, 50.207966 ], [ -5.123928, 50.208317 ], [ -5.124198, 50.208721 ], [ -5.124217, 50.208893 ], [ -5.123819, 50.20927 ], [ -5.123028, 50.209942 ], [ -5.117591, 50.207809 ] ] ] } },
{ "type": "Feature", "properties": { "tag-local-identifier": "Winnie-Tag", "area_m2": 66141 }, "geometry": { "type": "Polygon", "coordinates": [ [ [ -4.456356, 50.450901 ], [ -4.459005, 50.451382 ], [ -4.459358, 50.452091 ], [ -4.459014, 50.452877 ], [ -4.458306, 50.45282 ], [ -4.45758, 50.452595 ], [ -4.457262, 50.452251 ], [ -4.456356, 50.450901 ] ] ] } },
{ "type": "Feature", "properties": { "tag-local-identifier": "Worf-Tag", "area_m2": 432726 }, "geometry": { "type": "Polygon", "coordinates": [ [ [ -5.20323, 50.159328 ], [ -5.205958, 50.159912 ], [ -5.207258, 50.160572 ], [ -5.206802, 50.16338 ], [ -5.205388, 50.163979 ], [ -5.204195, 50.163631 ], [ -5.200773, 50.162235 ], [ -5.200437, 50.161835 ], [ -5.200306, 50.161663 ], [ -5.201206, 50.160015 ], [ -5.201559, 50.159836 ], [ -5.202438, 50.159466 ], [ -5.20323, 50.159328 ] ] ] } }
]
}
